[
  {
    "OBJECT_NAME": "STARLINK-31941",
    "OBJECT_ID": "24098J",
    "EPOCH": "2025-11-11T01:20:41.232192",
    "MEAN_MOTION": 15.27586539,
    "ECCENTRICITY": 0.0001339,
    "INCLINATION": 42.9993,
    "RA_OF_ASC_NODE": 210.2273,
    "ARG_OF_PERICENTER": 2.8822,
    "MEAN_ANOMALY": 357.2037,
    "EPHEMERIS_TYPE": 0,
    "CLASSIFICATION_TYPE": "U",
    "NORAD_CAT_ID": 59866,
    "ELEMENT_SET_NO": 999,
    "REV_AT_EPOCH": 8390,
    "BSTAR": 0.00018292,
    "MEAN_MOTION_DOT": 4.776e-05,
    "MEAN_MOTION_DDOT": 0.0,
    "TLE_LINE1": "1 59866U 24098J   25315.05603278  .00004776  00000+0  18292-3 0  9992",
    "TLE_LINE2": "2 59866  42.9993 210.2273 0001339   2.8822 357.2037 15.27586539 83905",
    "COMMENT": "Grouped by shell and plane from TLE"
  },
  {
    "OBJECT_NAME": "STARLINK-31940",
    "OBJECT_ID": "24098R",
    "EPOCH": "2025-11-11T03:22:08.971968",
    "MEAN_MOTION": 15.27705917,
    "ECCENTRICITY": 0.000113,
    "INCLINATION": 42.9991,
    "RA_OF_ASC_NODE": 219.8876,
    "ARG_OF_PERICENTER": 325.907,
    "MEAN_ANOMALY": 34.1709,
    "EPHEMERIS_TYPE": 0,
    "CLASSIFICATION_TYPE": "U",
    "NORAD_CAT_ID": 59873,
    "ELEMENT_SET_NO": 999,
    "REV_AT_EPOCH": 8380,
    "BSTAR": 0.0,
    "MEAN_MOTION_DOT": -0.00020792,
    "MEAN_MOTION_DDOT": 0.0,
    "TLE_LINE1": "1 59873U 24098R   25315.14038162 -.00020792  00000+0 -74527-3 0  9995",
    "TLE_LINE2": "2 59873  42.9991 219.8876 0001130 325.9070  34.1709 15.27705917 83807",
    "COMMENT": "Grouped by shell and plane from TLE"
  },
  {
    "OBJECT_NAME": "STARLINK-31926",
    "OBJECT_ID": "24098X",
    "EPOCH": "2025-11-11T03:35:58.631424",
    "MEAN_MOTION": 15.27589636,
    "ECCENTRICITY": 1.68e-05,
    "INCLINATION": 42.9971,
    "RA_OF_ASC_NODE": 216.9415,
    "ARG_OF_PERICENTER": 24.6237,
    "MEAN_ANOMALY": 335.4623,
    "EPHEMERIS_TYPE": 0,
    "CLASSIFICATION_TYPE": "U",
    "NORAD_CAT_ID": 59879,
    "ELEMENT_SET_NO": 999,
    "REV_AT_EPOCH": 8383,
    "BSTAR": 0.00015234,
    "MEAN_MOTION_DOT": 3.934e-05,
    "MEAN_MOTION_DDOT": 0.0,
    "TLE_LINE1": "1 59879U 24098X   25315.14998416  .00003934  00000+0  15234-3 0  9995",
    "TLE_LINE2": "2 59879  42.9971 216.9415 0000168  24.6237 335.4623 15.27589636 83839",
    "COMMENT": "Grouped by shell and plane from TLE"
  },
  {
    "OBJECT_NAME": "STARLINK-31878",
    "OBJECT_ID": "24111R",
    "EPOCH": "2025-11-10T10:37:19.151328",
    "MEAN_MOTION": 15.30203553,
    "ECCENTRICITY": 0.0001424,
    "INCLINATION": 53.1604,
    "RA_OF_ASC_NODE": 217.7463,
    "ARG_OF_PERICENTER": 92.8675,
    "MEAN_ANOMALY": 267.2488,
    "EPHEMERIS_TYPE": 0,
    "CLASSIFICATION_TYPE": "U",
    "NORAD_CAT_ID": 60031,
    "ELEMENT_SET_NO": 999,
    "REV_AT_EPOCH": 8125,
    "BSTAR": 3.6546000000000006e-05,
    "MEAN_MOTION_DOT": 7.23e-06,
    "MEAN_MOTION_DDOT": 0.0,
    "TLE_LINE1": "1 60031U 24111R   25314.44258277  .00000723  00000+0  36546-4 0  9992",
    "TLE_LINE2": "2 60031  53.1604 217.7463 0001424  92.8675 267.2488 15.30203553 81259",
    "COMMENT": "Grouped by shell and plane from TLE"
  },
  {
    "OBJECT_NAME": "STARLINK-31846",
    "OBJECT_ID": "24118P",
    "EPOCH": "2025-11-11T01:22:38.858016",
    "MEAN_MOTION": 15.30207384,
    "ECCENTRICITY": 0.0001218,
    "INCLINATION": 53.1598,
    "RA_OF_ASC_NODE": 217.7287,
    "ARG_OF_PERICENTER": 105.6484,
    "MEAN_ANOMALY": 254.4651,
    "EPHEMERIS_TYPE": 0,
    "CLASSIFICATION_TYPE": "U",
    "NORAD_CAT_ID": 60126,
    "ELEMENT_SET_NO": 999,
    "REV_AT_EPOCH": 7753,
    "BSTAR": 0.00021251999999999998,
    "MEAN_MOTION_DOT": 5.942e-05,
    "MEAN_MOTION_DDOT": 0.0,
    "TLE_LINE1": "1 60126U 24118P   25315.05739419  .00005942  00000+0  21252-3 0  9999",
    "TLE_LINE2": "2 60126  53.1598 217.7287 0001218 105.6484 254.4651 15.30207384 77534",
    "COMMENT": "Grouped by shell and plane from TLE"
  },
  {
    "OBJECT_NAME": "STARLINK-31840",
    "OBJECT_ID": "24118Q",
    "EPOCH": "2025-11-11T03:05:48.859872",
    "MEAN_MOTION": 15.30180159,
    "ECCENTRICITY": 0.0001429,
    "INCLINATION": 53.161,
    "RA_OF_ASC_NODE": 217.4645,
    "ARG_OF_PERICENTER": 91.0747,
    "MEAN_ANOMALY": 269.0418,
    "EPHEMERIS_TYPE": 0,
    "CLASSIFICATION_TYPE": "U",
    "NORAD_CAT_ID": 60127,
    "ELEMENT_SET_NO": 999,
    "REV_AT_EPOCH": 7754,
    "BSTAR": 0.00015146999999999998,
    "MEAN_MOTION_DOT": 4.127e-05,
    "MEAN_MOTION_DDOT": 0.0,
    "TLE_LINE1": "1 60127U 24118Q   25315.12903773  .00004127  00000+0  15147-3 0  9994",
    "TLE_LINE2": "2 60127  53.1610 217.4645 0001429  91.0747 269.0418 15.30180159 77543",
    "COMMENT": "Grouped by shell and plane from TLE"
  },
  {
    "OBJECT_NAME": "STARLINK-31813",
    "OBJECT_ID": "24118R",
    "EPOCH": "2025-11-10T23:53:09.085920",
    "MEAN_MOTION": 15.30195338,
    "ECCENTRICITY": 0.0001442,
    "INCLINATION": 53.1611,
    "RA_OF_ASC_NODE": 218.0513,
    "ARG_OF_PERICENTER": 97.3007,
    "MEAN_ANOMALY": 262.8158,
    "EPHEMERIS_TYPE": 0,
    "CLASSIFICATION_TYPE": "U",
    "NORAD_CAT_ID": 60128,
    "ELEMENT_SET_NO": 999,
    "REV_AT_EPOCH": 7752,
    "BSTAR": 0.0,
    "MEAN_MOTION_DOT": -4.76e-06,
    "MEAN_MOTION_DDOT": 0.0,
    "TLE_LINE1": "1 60128U 24118R   25314.99524405 -.00000476  00000+0 -39331-5 0  9998",
    "TLE_LINE2": "2 60128  53.1611 218.0513 0001442  97.3007 262.8158 15.30195338 77524",
    "COMMENT": "Grouped by shell and plane from TLE"
  },
  {
    "OBJECT_NAME": "STARLINK-31845",
    "OBJECT_ID": "24118S",
    "EPOCH": "2025-11-10T23:49:21.736416",
    "MEAN_MOTION": 15.30184916,
    "ECCENTRICITY": 0.0001419,
    "INCLINATION": 53.1613,
    "RA_OF_ASC_NODE": 215.8972,
    "ARG_OF_PERICENTER": 79.6491,
    "MEAN_ANOMALY": 280.4669,
    "EPHEMERIS_TYPE": 0,
    "CLASSIFICATION_TYPE": "U",
    "NORAD_CAT_ID": 60129,
    "ELEMENT_SET_NO": 999,
    "REV_AT_EPOCH": 7755,
    "BSTAR": 0.0,
    "MEAN_MOTION_DOT": -1.304e-05,
    "MEAN_MOTION_DDOT": 0.0,
    "TLE_LINE1": "1 60129U 24118S   25314.99261269 -.00001304  00000+0 -31929-4 0  9990",
    "TLE_LINE2": "2 60129  53.1613 215.8972 0001419  79.6491 280.4669 15.30184916 77551",
    "COMMENT": "Grouped by shell and plane from TLE"
  },
  {
    "OBJECT_NAME": "STARLINK-31838",
    "OBJECT_ID": "24118T",
    "EPOCH": "2025-11-11T00:06:49.532544",
    "MEAN_MOTION": 15.30177576,
    "ECCENTRICITY": 0.0001264,
    "INCLINATION": 53.1614,
    "RA_OF_ASC_NODE": 218.1099,
    "ARG_OF_PERICENTER": 102.189,
    "MEAN_ANOMALY": 257.9252,
    "EPHEMERIS_TYPE": 0,
    "CLASSIFICATION_TYPE": "U",
    "NORAD_CAT_ID": 60130,
    "ELEMENT_SET_NO": 999,
    "REV_AT_EPOCH": 7752,
    "BSTAR": 0.00012817999999999998,
    "MEAN_MOTION_DOT": 3.436e-05,
    "MEAN_MOTION_DDOT": 0.0,
    "TLE_LINE1": "1 60130U 24118T   25315.00473996  .00003436  00000+0  12818-3 0  9998",
    "TLE_LINE2": "2 60130  53.1614 218.1099 0001264 102.1890 257.9252 15.30177576 77521",
    "COMMENT": "Grouped by shell and plane from TLE"
  },
  {
    "OBJECT_NAME": "STARLINK-31785",
    "OBJECT_ID": "24118U",
    "EPOCH": "2025-11-10T23:42:31.001184",
    "MEAN_MOTION": 15.30193001,
    "ECCENTRICITY": 0.0001245,
    "INCLINATION": 53.1612,
    "RA_OF_ASC_NODE": 218.0031,
    "ARG_OF_PERICENTER": 84.144,
    "MEAN_ANOMALY": 275.9703,
    "EPHEMERIS_TYPE": 0,
    "CLASSIFICATION_TYPE": "U",
    "NORAD_CAT_ID": 60131,
    "ELEMENT_SET_NO": 999,
    "REV_AT_EPOCH": 7752,
    "BSTAR": 7.3901e-06,
    "MEAN_MOTION_DOT": -1.4e-06,
    "MEAN_MOTION_DDOT": 0.0,
    "TLE_LINE1": "1 60131U 24118U   25314.98785881 -.00000140  00000+0  73901-5 0  9996",
    "TLE_LINE2": "2 60131  53.1612 218.0031 0001245  84.1440 275.9703 15.30193001 77526",
    "COMMENT": "Grouped by shell and plane from TLE"
  },
  {
    "OBJECT_NAME": "STARLINK-31792",
    "OBJECT_ID": "24118V",
    "EPOCH": "2025-11-11T00:59:05.312544",
    "MEAN_MOTION": 15.30193058,
    "ECCENTRICITY": 0.0001344,
    "INCLINATION": 53.1608,
    "RA_OF_ASC_NODE": 215.4512,
    "ARG_OF_PERICENTER": 92.8394,
    "MEAN_ANOMALY": 267.276,
    "EPHEMERIS_TYPE": 0,
    "CLASSIFICATION_TYPE": "U",
    "NORAD_CAT_ID": 60132,
    "ELEMENT_SET_NO": 999,
    "REV_AT_EPOCH": 7756,
    "BSTAR": 2.1173000000000002e-05,
    "MEAN_MOTION_DOT": 2.68e-06,
    "MEAN_MOTION_DDOT": 0.0,
    "TLE_LINE1": "1 60132U 24118V   25315.04103371  .00000268  00000+0  21173-4 0  9996",
    "TLE_LINE2": "2 60132  53.1608 215.4512 0001344  92.8394 267.2760 15.30193058 77564",
    "COMMENT": "Grouped by shell and plane from TLE"
  },
  {
    "OBJECT_NAME": "STARLINK-32151",
    "OBJECT_ID": "24132X",
    "EPOCH": "2025-11-10T23:47:41.047584",
    "MEAN_MOTION": 15.30197978,
    "ECCENTRICITY": 0.0001492,
    "INCLINATION": 53.1609,
    "RA_OF_ASC_NODE": 215.3287,
    "ARG_OF_PERICENTER": 121.7501,
    "MEAN_ANOMALY": 238.3646,
    "EPHEMERIS_TYPE": 0,
    "CLASSIFICATION_TYPE": "U",
    "NORAD_CAT_ID": 60299,
    "ELEMENT_SET_NO": 999,
    "REV_AT_EPOCH": 7378,
    "BSTAR": 0.00014079,
    "MEAN_MOTION_DOT": 3.812e-05,
    "MEAN_MOTION_DDOT": 0.0,
    "TLE_LINE1": "1 60299U 24132X   25314.99144731  .00003812  00000+0  14079-3 0  9998",
    "TLE_LINE2": "2 60299  53.1609 215.3287 0001492 121.7501 238.3646 15.30197978 73780",
    "COMMENT": "Grouped by shell and plane from TLE"
  },
  {
    "OBJECT_NAME": "STARLINK-32582",
    "OBJECT_ID": "24216B",
    "EPOCH": "2025-11-11T03:18:02.658528",
    "MEAN_MOTION": 15.27623562,
    "ECCENTRICITY": 8.69e-05,
    "INCLINATION": 42.9969,
    "RA_OF_ASC_NODE": 212.8509,
    "ARG_OF_PERICENTER": 279.2258,
    "MEAN_ANOMALY": 80.8495,
    "EPHEMERIS_TYPE": 0,
    "CLASSIFICATION_TYPE": "U",
    "NORAD_CAT_ID": 62033,
    "ELEMENT_SET_NO": 999,
    "REV_AT_EPOCH": 5566,
    "BSTAR": 0.0007723900000000001,
    "MEAN_MOTION_DOT": 0.00021082,
    "MEAN_MOTION_DDOT": 0.0,
    "TLE_LINE1": "1 62033U 24216B   25315.13753077  .00021082  00000+0  77239-3 0  9991",
    "TLE_LINE2": "2 62033  42.9969 212.8509 0000869 279.2258  80.8495 15.27623562 55665",
    "COMMENT": "Grouped by shell and plane from TLE"
  }
]